{
    "links": {
        "self": "http://www.neowsapp.com/rest/v1/neo/3942361?api_key=iIulBulltgU6a56xZRHN4H3l9WmuAYTsLGpBGhQ2"
    },
    "id": "3942361",
    "neo_reference_id": "3942361",
    "name": "(2019 YJ)",
    "designation": "2019 YJ",
    "nasa_jpl_url": "http://ssd.jpl.nasa.gov/sbdb.cgi?sstr=3942361",
    "absolute_magnitude_h": 23.9,
    "estimated_diameter": {
        "kilometers": {
            "estimated_diameter_min": 0.04411182,
            "estimated_diameter_max": 0.0986370281
        },
        "meters": {
            "estimated_diameter_min": 44.1118199997,
            "estimated_diameter_max": 98.6370281305
        },
        "miles": {
            "estimated_diameter_min": 0.0274098057,
            "estimated_diameter_max": 0.0612901888
        },
        "feet": {
            "estimated_diameter_min": 144.7238235278,
            "estimated_diameter_max": 323.6123073718
        }
    },
    "is_potentially_hazardous_asteroid": false,
    "close_approach_data": [
        {
            "close_approach_date": "2019-12-14",
            "close_approach_date_full": "2019-Dec-14 16:24",
            "epoch_date_close_approach": 1576340640000,
            "relative_velocity": {
                "kilometers_per_second": "21.9654785984",
                "kilometers_per_hour": "79075.7229541",
                "miles_per_hour": "49134.5790766739"
            },
            "miss_distance": {
                "astronomical": "0.1320088887",
                "lunar": "51.3514577043",
                "kilometers": "19748248.570587069",
                "miles": "12270992.6482727922"
            },
            "orbiting_body": "Earth"
        }
    ],
    "orbital_data": {
        "orbit_id": "4",
        "orbit_determination_date": "2020-01-04 05:13:05",
        "first_observation_date": "2019-12-17",
        "last_observation_date": "2019-12-23",
        "data_arc_in_days": 6,
        "observations_used": 17,
        "orbit_uncertainty": "9",
        "minimum_orbit_intersection": ".111096",
        "jupiter_tisserand_invariant": "4.321",
        "epoch_osculation": "2458835.5",
        "eccentricity": ".2957908691995536",
        "semi_major_axis": "1.461161237843143",
        "inclination": "41.34228568822743",
        "ascending_node_longitude": "78.64359252987506",
        "orbital_period": "645.1276272923648",
        "perihelion_distance": "1.028963085260824",
        "perihelion_argument": "43.98952099339328",
        "aphelion_distance": "1.893359390425462",
        "perihelion_time": "2458875.104828011774",
        "mean_anomaly": "337.8993528085611",
        "mean_motion": ".5580291166740747",
        "equinox": "J2000",
        "orbit_class": {
            "orbit_class_type": "AMO",
            "orbit_class_description": "Near-Earth asteroid orbits similar to that of 1221 Amor",
            "orbit_class_range": "1.017 AU < q (perihelion) < 1.3 AU"
        }
    },
    "is_sentry_object": false
}